0 CZ-4 DEB
1 20876U 90081AL  13283.70629593  .00001085  00000-0  47831-3 0  4927
2 20876 098.7123 305.8580 0020826 122.1052 013.4204 14.25324752195234
0 CZ-4 DEB
1 20876U 90081AL  13286.51960985  .00001119  00000-0  49284-3 0  4946
2 20876 098.7116 308.6523 0020785 114.4413 048.5201 14.25330727195632
0 CZ-4 DEB
1 20876U 90081AL  13287.63983955  .00001434  00000-0  62591-3 0  4959
2 20876 098.7114 309.7650 0020746 111.3580 036.4615 14.25334681195796
0 CZ-4 DEB
1 20876U 90081AL  13289.02508226  .00001445  00000-0  63063-3 0  4966
2 20876 098.7111 311.1407 0020719 107.5697 304.1925 14.25340328195992
0 CZ-4 DEB
1 20876U 90081AL  13290.14616936  .00001372  00000-0  59967-3 0  4977
2 20876 098.7110 312.2540 0020723 104.4616 296.5933 14.25343253196155
0 CZ-4 DEB
1 20876U 90081AL  13291.34502441  .00001396  00000-0  60965-3 0  4982
2 20876 098.7109 313.4443 0020705 101.1678 328.0150 14.25346146196325
0 CZ-4 DEB
1 20876U 90081AL  13292.54919314  .00001415  00000-0  61773-3 0  4997
2 20876 098.7110 314.6399 0020683 097.8823 026.6900 14.25349420196498
0 CZ-4 DEB
1 20876U 90081AL  13293.67516847  .00001493  00000-0  65089-3 0  5009
2 20876 098.7111 315.7581 0020602 094.7520 044.2217 14.25352134196656
0 CZ-4 DEB
1 20876U 90081AL  13295.13039806  .00001541  00000-0  67090-3 0  5016
2 20876 098.7111 317.2032 0020564 090.7054 311.2200 14.25356320196862
0 CZ-4 DEB
1 20876U 90081AL  13296.19240506  .00001521  00000-0  66239-3 0  5027
2 20876 098.7110 318.2580 0020513 087.7739 000.5247 14.25360171197016
